STARLINK-34424          
1 64295U 25123E   26182.64704264  .00004529  00000+0  38697-3 0  9996
2 64295  70.0016 267.3058 0004022 267.6729  92.3970 14.98340932 59906
STARLINK-34443          
1 64296U 25123F   26182.94746978  .00003472  00000+0  29870-3 0  9997
2 64296  69.9990 266.3528 0003758 264.7596  95.3134 14.98320402 59951
STARLINK-34369          
1 64297U 25123G   26182.69309743  .00004898  00000+0  41790-3 0  9993
2 64297  70.0005 267.0684 0003740 270.2533  89.8197 14.98340803 58691
STARLINK-34391          
1 64298U 25123H   26182.65119227  .00004024  00000+0  34475-3 0  9999
2 64298  70.0016 266.9266 0003305 269.0077  91.0703 14.98340536 58695
STARLINK-34378          
1 64299U 25123J   26182.94761328  .00002915  00000+0  25196-3 0  9994
2 64299  70.0001 266.3570 0003574 266.2575  93.8175 14.98340381 58738
STARLINK-34376          
1 64300U 25123K   26182.50517662  .00004699  00000+0  40127-3 0  9991
2 64300  70.0015 267.6254 0003769 267.2693  92.8034 14.98338718 58663
STARLINK-34372          
1 64301U 25123L   26182.48848425  .00000894  00000+0  82708-4 0  9998
2 64301  70.0002 267.5627 0003465 270.8601  89.2161 14.98335465 58662
STARLINK-34379          
1 64302U 25123M   26182.91668981  .00090847  00000+0  19212-2 0  9999
2 64302  69.9994 216.3567 0003528 267.7132 246.5458 15.44692170  5748
STARLINK-34356          
1 64303U 25123N   26182.45508465  .00005768  00000+0  49063-3 0  9995
2 64303  70.0010 267.4453 0003613 268.6782  91.3963 14.98343052 58664
STARLINK-34360          
1 64304U 25123P   26182.63468701  .00003281  00000+0  28256-3 0  9993
2 64304  70.0013 267.2666 0003438 267.2994  92.7772 14.98338414 58688
STARLINK-34383          
1 64305U 25123Q   26182.45109399  .00000539  00000+0  52916-4 0  9993
2 64305  70.0016 267.8299 0003555 271.9213  88.1539 14.98337166 58656
STARLINK-34355          
1 64306U 25123R   26182.51369008  .00004918  00000+0  41952-3 0  9998
2 64306  70.0017 267.6482 0003723 268.4819  91.5914 14.98339951 58660
STARLINK-34380          
1 64307U 25123S   26182.50951599  .00004460  00000+0  38126-3 0  9991
2 64307  70.0015 267.6338 0003423 268.9252  91.1515 14.98338981 58667
STARLINK-34374          
1 64308U 25123T   26182.63051133  .00004604  00000+0  39328-3 0  9996
2 64308  70.0008 267.2505 0003546 268.8585  91.2167 14.98340582 58682
STARLINK-34370          
1 64309U 25123U   26182.48864235  .00004139  00000+0  35435-3 0  9993
2 64309  70.0010 267.5570 0003990 268.6016  91.4686 14.98340476 58669
STARLINK-34357          
1 64310U 25123V   26182.50934854  .00002306  00000+0  20097-3 0  9995
2 64310  70.0024 267.6380 0003416 273.0022  87.0746 14.98337338 58667
STARLINK-34368          
1 64311U 25123W   26182.63452207  .00004588  00000+0  39196-3 0  9991
2 64311  70.0014 267.2616 0002998 269.3601  90.7214 14.98340085 58686
STARLINK-34384          
1 64312U 25123X   26182.62617151  .00004707  00000+0  40188-3 0  9998
2 64312  70.0006 267.2395 0003712 269.3634  90.7100 14.98341284 58689
STARLINK-34358          
1 64313U 25123Y   26182.48430356  .00003584  00000+0  30791-3 0  9994
2 64313  70.0006 267.5464 0003289 269.6836  90.3946 14.98339154 58661
STARLINK-34354          
1 64314U 25123Z   26182.94327555  .00002283  00000+0  19906-3 0  9992
2 64314  70.0013 266.3362 0003277 268.1206  91.9578 14.98339137 58733
STARLINK-34387          
1 64315U 25123AA  26182.93494144  .00001554  00000+0  13794-3 0  9990
2 64315  70.0003 266.3081 0003813 275.5246  84.5478 14.98339140 58734
STARLINK-33590          
1 64316U 25123AB  26182.94345972 -.00030603  00000+0 -25728-2 0  9994
2 64316  70.0032 266.3325 0003435 252.4333 107.6451 14.98260081 58734
STARLINK-11736 [DTC]    
1 64317U 25124A   26182.96482112  .00255472  00000+0  19341-2 0  9991
2 64317  43.0006  60.6963 0001796 283.1767  76.8900 15.70836521 60805
STARLINK-11673 [DTC]    
1 64318U 25124B   26182.94358367  .00181855  00000+0  13854-2 0  9990
2 64318  43.0006  60.5245 0003157 252.2293 107.8230 15.70914961 60808
STARLINK-11671 [DTC]    
1 64319U 25124C   26182.93296101  .00233452  00000+0  17714-2 0  9997
2 64319  42.9996  60.4373 0002352 137.5772 222.5278 15.70849841 60800
STARLINK-11594 [DTC]    
1 64320U 25124D   26182.71578549  .00174901  00000+0  13332-2 0  9999
2 64320  43.0011  62.2692 0002231 255.0191 105.0430 15.70926404 60764
STARLINK-11596 [DTC]    
1 64321U 25124E   26182.95951167  .00257435  00000+0  19478-2 0  9998
2 64321  42.9992  60.6514 0000902 263.2436  96.8329 15.70844912 60804
STARLINK-11747 [DTC]    
1 64322U 25124F   26182.94888952  .00124651  00000+0  96098-3 0  9996
2 64322  43.0000  60.5658 0002153 139.3269 220.7759 15.70825494 60801
STARLINK-11728 [DTC]    
1 64323U 25124G   26182.72628191  .00156401  00000+0  11977-2 0  9990
2 64323  43.0003  61.4579 0002440 222.4148 137.6532 15.70875240 60771
STARLINK-11696 [DTC]    
1 64324U 25124H   26182.67331399  .00320253  00000+0  23804-2 0  9996
2 64324  43.0001  61.9279 0002397 261.0278  99.0318 15.71078311 60763
