OBJECT_NAME,OBJECT_ID,EPOCH,MEAN_MOTION,ECCENTRICITY,INCLINATION,RA_OF_ASC_NODE,ARG_OF_PERICENTER,MEAN_ANOMALY,EPHEMERIS_TYPE,CLASSIFICATION_TYPE,NORAD_CAT_ID,ELEMENT_SET_NO,REV_AT_EPOCH,BSTAR,MEAN_MOTION_DOT,MEAN_MOTION_DDOT
STARLINK-34424,2025-123E,2026-07-01T15:31:44.484096,14.98340932,.00040224,70.0016,267.3058,267.6729,92.3970,0,U,64295,999,5990,.38696517E-3,.4529E-4,0
STARLINK-34443,2025-123F,2026-07-01T22:44:21.388992,14.98320402,.00037585,69.9990,266.3528,264.7596,95.3134,0,U,64296,999,5995,.29869957E-3,.3472E-4,0
STARLINK-34369,2025-123G,2026-07-01T16:38:03.617952,14.98340803,.000374,70.0005,267.0684,270.2533,89.8197,0,U,64297,999,5869,.41789656E-3,.4898E-4,0
STARLINK-34391,2025-123H,2026-07-01T15:37:43.012128,14.98340536,.00033052,70.0016,266.9266,269.0077,91.0703,0,U,64298,999,5869,.34475216E-3,.4024E-4,0
STARLINK-34378,2025-123J,2026-07-01T22:44:33.787392,14.98340381,.0003574,70.0001,266.3570,266.2575,93.8175,0,U,64299,999,5873,.25195894E-3,.2915E-4,0
STARLINK-34376,2025-123K,2026-07-01T12:07:27.259968,14.98338718,.00037692,70.0015,267.6254,267.2693,92.8034,0,U,64300,999,5866,.40127219E-3,.4699E-4,0
STARLINK-34372,2025-123L,2026-07-01T11:43:25.039200,14.98335465,.00034654,70.0002,267.5627,270.8601,89.2161,0,U,64301,999,5866,.82708109E-4,.894E-5,0
STARLINK-34379,2025-123M,2026-07-01T22:00:01.999584,15.44692170,.00035283,69.9994,216.3567,267.7132,246.5458,0,U,64302,999,574,.19211631E-2,.90847E-3,0
STARLINK-34356,2025-123N,2026-07-01T10:55:19.313760,14.98343052,.00036135,70.0010,267.4453,268.6782,91.3963,0,U,64303,999,5866,.4906295E-3,.5768E-4,0
STARLINK-34360,2025-123P,2026-07-01T15:13:56.957664,14.98338414,.00034386,70.0013,267.2666,267.2994,92.7772,0,U,64304,999,5868,.28256477E-3,.3281E-4,0
STARLINK-34383,2025-123Q,2026-07-01T10:49:34.520736,14.98337166,.00035553,70.0016,267.8299,271.9213,88.1539,0,U,64305,999,5865,.52916111E-4,.539E-5,0
STARLINK-34355,2025-123R,2026-07-01T12:19:42.822912,14.98339951,.00037231,70.0017,267.6482,268.4819,91.5914,0,U,64306,999,5866,.41952213E-3,.4918E-4,0
STARLINK-34380,2025-123S,2026-07-01T12:13:42.181536,14.98338981,.00034232,70.0015,267.6338,268.9252,91.1515,0,U,64307,999,5866,.38126167E-3,.446E-4,0
STARLINK-34374,2025-123T,2026-07-01T15:07:56.178912,14.98340582,.00035465,70.0008,267.2505,268.8585,91.2167,0,U,64308,999,5868,.39328256E-3,.4604E-4,0
STARLINK-34370,2025-123U,2026-07-01T11:43:38.699040,14.98340476,.000399,70.0010,267.5570,268.6016,91.4686,0,U,64309,999,5866,.35434558E-3,.4139E-4,0
STARLINK-34357,2025-123V,2026-07-01T12:13:27.713856,14.98337338,.00034164,70.0024,267.6380,273.0022,87.0746,0,U,64310,999,5866,.20096642E-3,.2306E-4,0
STARLINK-34368,2025-123W,2026-07-01T15:13:42.706848,14.98340085,.0002998,70.0014,267.2616,269.3601,90.7214,0,U,64311,999,5868,.39196345E-3,.4588E-4,0
STARLINK-34384,2025-123X,2026-07-01T15:01:41.218464,14.98341284,.00037122,70.0006,267.2395,269.3634,90.7100,0,U,64312,999,5868,.40187638E-3,.4707E-4,0
STARLINK-34358,2025-123Y,2026-07-01T11:37:23.827584,14.98339154,.00032898,70.0006,267.5464,269.6836,90.3946,0,U,64313,999,5866,.30791118E-3,.3584E-4,0
STARLINK-34354,2025-123Z,2026-07-01T22:38:19.007520,14.98339137,.00032773,70.0013,266.3362,268.1206,91.9578,0,U,64314,999,5873,.1990592E-3,.2283E-4,0
STARLINK-34387,2025-123AA,2026-07-01T22:26:18.940416,14.98339140,.00038136,70.0003,266.3081,275.5246,84.5478,0,U,64315,999,5873,.13793809E-3,.1554E-4,0
STARLINK-33590,2025-123AB,2026-07-01T22:38:34.919808,14.98260081,.00034351,70.0032,266.3325,252.4333,107.6451,0,U,64316,999,5873,-.2572806E-2,-.30603E-3,0
STARLINK-11736 [DTC],2025-124A,2026-07-01T23:09:20.544768,15.70836521,.0001796,43.0006,60.6963,283.1767,76.8900,0,U,64317,999,6080,.19341474E-2,.255472E-2,0
STARLINK-11673 [DTC],2025-124B,2026-07-01T22:38:45.629088,15.70914961,.00031576,43.0006,60.5245,252.2293,107.8230,0,U,64318,999,6080,.13854119E-2,.181855E-2,0
STARLINK-11671 [DTC],2025-124C,2026-07-01T22:23:27.831264,15.70849841,.00023523,42.9996,60.4373,137.5772,222.5278,0,U,64319,999,6080,.1771432E-2,.233452E-2,0
STARLINK-11594 [DTC],2025-124D,2026-07-01T17:10:43.866336,15.70926404,.00022314,43.0011,62.2692,255.0191,105.0430,0,U,64320,999,6076,.13331645E-2,.174901E-2,0
STARLINK-11596 [DTC],2025-124E,2026-07-01T23:01:41.808288,15.70844912,.00009025,42.9992,60.6514,263.2436,96.8329,0,U,64321,999,6080,.19478161E-2,.257435E-2,0
STARLINK-11747 [DTC],2025-124F,2026-07-01T22:46:24.054528,15.70825494,.00021533,43.0000,60.5658,139.3269,220.7759,0,U,64322,999,6080,.96097598E-3,.124651E-2,0
STARLINK-11728 [DTC],2025-124G,2026-07-01T17:25:50.757024,15.70875240,.00024406,43.0003,61.4579,222.4148,137.6532,0,U,64323,999,6077,.11977296E-2,.156401E-2,0
STARLINK-11696 [DTC],2025-124H,2026-07-01T16:09:34.328736,15.71078311,.00023978,43.0001,61.9279,261.0278,99.0318,0,U,64324,999,6076,.23804467E-2,.320253E-2,0
